{"fetched_at":"2026-03-29T02:12:04Z","count":15717,"tles":[{"name":"COSMOS 2594","line1":"1 65270U 25182D   26087.10242087  .00002803  18500-5  81264-5 0  9993","line2":"2 65270  96.5920  19.8593 0010816  89.8676 270.3842 15.96354846 34776","category":"Other"}]}